NORAD_CAT_ID,OBJECT_NAME,OBJECT_TYPE,EPOCH,MEAN_MOTION,ECCENTRICITY,INCLINATION,RA_OF_ASC_NODE,ARG_OF_PERICENTER,MEAN_ANOMALY,BSTAR,MEAN_MOTION_DOT,MEAN_MOTION_DDOT,TLE_LINE0,TLE_LINE1,TLE_LINE2,SEMIMAJOR_AXIS,PERIOD,APOGEE,PERIGEE,DECAYED
56467.0,STARLINK-6055,PAYLOAD,2023-10-15 02:44:05,14.98343376,0.0002878,69.9996,174.7401,270.1136,89.9694,0.00016507,1.878e-05,0.0,0 STARLINK-6055,1 56467U 23064V   23288.11394805  .00001878  00000-0  16507-3 0  9993,2 56467  69.9996 174.7401 0002878 270.1136  89.9694 14.98343376 24792,6950.152,96.106,574.017,570.016,0.0
56467.0,STARLINK-6055,PAYLOAD,2023-10-15 20:21:35,14.98314318,0.0002733,70.0,172.8886,274.0731,86.0115,0.00036372,4.248e-05,0.0,0 STARLINK-6055,1 56467U 23064V   23288.84832262  .00004248  00000-0  36372-3 0  9993,2 56467  70.0000 172.8886 0002733 274.0731  86.0115 14.98314318 24904,6950.241,96.108,574.006,570.207,0.0
56467.0,STARLINK-6055,PAYLOAD,2023-10-15 21:57:43,14.98313831,0.0002731,70.0003,172.7211,272.2067,87.8779,0.0003725,4.352e-05,0.0,0 STARLINK-6055,1 56467U 23064V   23288.91508282  .00004352  00000-0  37250-3 0  9995,2 56467  70.0003 172.7211 0002731 272.2067  87.8779 14.98313831 24553,6950.243,96.108,574.006,570.21,0.0
56467.0,STARLINK-6055,PAYLOAD,2023-10-16 02:46:06,14.98340235,0.0002732,70.0,172.2154,272.0044,88.0802,-1.4903e-05,-2.71e-06,0.0,0 STARLINK-6055,1 56467U 23064V   23289.11535682 -.00000271  00000-0 -14903-4 0  9991,2 56467  70.0000 172.2154 0002732 272.0044  88.0802 14.98340235 24946,6950.161,96.106,573.925,570.127,0.0
56467.0,STARLINK-6055,PAYLOAD,2023-10-16 09:10:38,14.98347808,0.000253,70.0006,171.5424,267.6393,92.4477,-0.00023336,-2.877e-05,0.0,0 STARLINK-6055,1 56467U 23064V   23289.38239498 -.00002877  00000-0 -23336-3 0  9999,2 56467  70.0006 171.5424 0002530 267.6393  92.4477 14.98347808 24622,6950.138,96.106,573.761,570.244,0.0
56467.0,STARLINK-6055,PAYLOAD,2023-10-16 17:11:19,14.98339108,0.0002766,69.9996,170.7003,271.4121,88.6722,-7.7804e-05,-1.021e-05,0.0,0 STARLINK-6055,1 56467U 23064V   23289.71619378 -.00001021  00000-0 -77804-4 0  9995,2 56467  69.9996 170.7003 0002766 271.4121  88.6722 14.98339108 24673,6950.165,96.106,573.952,570.107,0.0
56467.0,STARLINK-6055,PAYLOAD,2023-10-17 09:12:39,14.98350825,0.0002674,70.0002,169.016,276.2365,83.8489,-0.00040828,-4.964e-05,0.0,0 STARLINK-6055,1 56467U 23064V   23290.38378994 -.00004964  00000-0 -40828-3 0  9990,2 56467  70.0002 169.0160 0002674 276.2365  83.8489 14.98350825 25138,6950.128,96.106,573.852,570.135,0.0
56467.0,STARLINK-6055,PAYLOAD,2023-10-18 01:14:00,14.98330397,0.0003,69.9987,167.3329,271.9752,88.1063,-7.3376e-05,-9.68e-06,0.0,0 STARLINK-6055,1 56467U 23064V   23291.05139287 -.00000968  00000-0 -73376-4 0  9990,2 56467  69.9987 167.3329 0003000 271.9752  88.1063 14.98330397 24879,6950.192,96.107,574.142,569.972,0.0
56467.0,STARLINK-6055,PAYLOAD,2023-10-18 09:14:40,14.98330758,0.0002711,70.0004,166.4925,274.7076,85.3773,-6.9343e-05,-9.2e-06,0.0,0 STARLINK-6055,1 56467U 23064V   23291.38519335 -.00000920  00000-0 -69343-4 0  9999,2 56467  70.0004 166.4925 0002711 274.7076  85.3773 14.98330758 25286,6950.191,96.107,573.94,570.171,0.0
56467.0,STARLINK-6055,PAYLOAD,2023-10-18 22:03:44,14.98335544,0.000289,69.9997,165.1459,266.2585,93.8243,2.0248e-06,-6.9e-07,0.0,0 STARLINK-6055,1 56467U 23064V   23291.91926712 -.00000069  00000-0  20248-5 0  9994,2 56467  69.9997 165.1459 0002890 266.2585  93.8243 14.98335544 25005,6950.176,96.107,574.049,570.032,0.0
56467.0,STARLINK-6055,PAYLOAD,2023-10-19 01:16:00,14.98335451,0.0002818,69.9975,164.8089,266.8726,93.2111,1.519e-05,8.8e-07,0.0,0 STARLINK-6055,1 56467U 23064V   23292.05278637  .00000088  00000-0  15190-4 0  9995,2 56467  69.9975 164.8089 0002818 266.8726  93.2111 14.98335451 25385,6950.176,96.107,574.0,570.082,0.0
56467.0,STARLINK-6055,PAYLOAD,2023-10-19 22:05:45,14.98316902,0.0002866,69.9957,162.6213,274.0084,86.0747,0.00030729,3.574e-05,0.0,0 STARLINK-6055,1 56467U 23064V   23292.92066594  .00003574  00000-0  30729-3 0  9995,2 56467  69.9957 162.6213 0002866 274.0084  86.0747 14.98316902 25151,6950.233,96.108,574.09,570.106,0.0
56467.0,STARLINK-6055,PAYLOAD,2023-10-20 01:18:01,14.98312969,0.0002607,69.9989,162.2852,273.3972,86.6889,0.00043324,5.078e-05,0.0,0 STARLINK-6055,1 56467U 23064V   23293.05418554  .00005078  00000-0  43324-3 0  9993,2 56467  69.9989 162.2852 0002607 273.3972  86.6889 14.98312969 25536,6950.246,96.108,573.922,570.299,0.0
56467.0,STARLINK-6055,PAYLOAD,2023-10-20 22:07:47,14.98326677,0.0002462,70.0014,160.0964,277.7884,82.2996,-7.5554e-05,-9.94e-06,0.0,0 STARLINK-6055,1 56467U 23064V   23293.92207503 -.00000994  00000-0 -75554-4 0  9994,2 56467  70.0014 160.0964 0002462 277.7884  82.2996 14.98326677 25304,6950.203,96.107,573.779,570.357,0.0
56467.0,STARLINK-6055,PAYLOAD,2023-10-21 01:20:03,14.98324984,0.0003017,69.9984,159.76,271.0035,89.0778,-9.5565e-05,-1.233e-05,0.0,0 STARLINK-6055,1 56467U 23064V   23294.05559472 -.00001233  00000-0 -95565-4 0  9995,2 56467  69.9984 159.7600 0003017 271.0035  89.0778 14.98324984 25684,6950.208,96.107,574.17,569.977,0.0
56467.0,STARLINK-6055,PAYLOAD,2023-10-21 20:33:39,14.98348708,0.0002522,70.0003,157.7396,273.5673,86.5197,-0.00010099,-1.298e-05,0.0,0 STARLINK-6055,1 56467U 23064V   23294.85670213 -.00001298  00000-0 -10099-3 0  9999,2 56467  70.0003 157.7396 0002522 273.5673  86.5197 14.98348708 25805,6950.135,96.106,573.753,570.247,0.0
56467.0,STARLINK-6055,PAYLOAD,2023-10-21 22:09:47,14.98360596,0.0002936,70.0,157.5705,299.5333,60.5533,-0.00029476,-3.611e-05,0.0,0 STARLINK-6055,1 56467U 23064V   23294.92346177 -.00003611  00000-0 -29476-3 0  9996,2 56467  70.0000 157.5705 0002936 299.5333  60.5533 14.98360596 25450,6950.098,96.105,574.004,569.923,0.0
56467.0,STARLINK-6055,PAYLOAD,2023-10-22 01:22:05,14.98322606,0.0003011,70.002,157.2337,304.4024,55.685,-0.0004671,-5.661e-05,0.0,0 STARLINK-6055,1 56467U 23064V   23295.05700882 -.00005661  00000-0 -46710-3 0  9995,2 56467  70.0020 157.2337 0003011 304.4024  55.6850 14.98322606 25837,6950.216,96.107,574.173,569.988,0.0
56467.0,STARLINK-6055,PAYLOAD,2023-10-22 07:46:38,14.98321663,0.0002733,70.0028,156.5599,275.2478,84.8369,-0.00065748,-7.927e-05,0.0,0 STARLINK-6055,1 56467U 23064V   23295.32405269 -.00007927  00000-0 -65748-3 0  9995,2 56467  70.0028 156.5599 0002733 275.2478  84.8369 14.98321663 25511,6950.219,96.108,573.983,570.184,0.0
56467.0,STARLINK-6055,PAYLOAD,2023-10-22 20:35:42,14.98329474,0.0001822,70.0022,155.2152,227.88,132.2204,-0.000157,-1.965e-05,0.0,0 STARLINK-6055,1 56467U 23064V   23295.85812991 -.00001965  00000-0 -15700-3 0  9996,2 56467  70.0022 155.2152 0001822 227.8800 132.2204 14.98329474 25958,6950.195,96.107,573.326,570.793,0.0
56467.0,STARLINK-6055,PAYLOAD,2023-10-22 22:11:53,14.98294353,0.0001759,70.0021,155.047,251.2078,108.889,-0.00054055,-6.53e-05,0.0,0 STARLINK-6055,1 56467U 23064V   23295.92491996 -.00006530  00000-0 -54055-3 0  9991,2 56467  70.0021 155.0470 0001759 251.2078 108.8890 14.98294353 25604,6950.303,96.109,573.391,570.946,0.0
56467.0,STARLINK-6055,PAYLOAD,2023-10-22 23:47:59,14.983126,0.0001889,70.0019,154.8786,287.9457,72.1496,-5.9897e-05,-8.07e-06,0.0,0 STARLINK-6055,1 56467U 23064V   23295.99165870 -.00000807  00000-0 -59897-4 0  9998,2 56467  70.0019 154.8786 0001889 287.9457  72.1496 14.98312600 25970,6950.247,96.108,573.425,570.799,0.0
56467.0,STARLINK-6055,PAYLOAD,2023-10-23 07:48:38,14.98324904,0.0002114,70.0015,154.0362,288.8469,71.2461,6.6533e-05,7.01e-06,0.0,0 STARLINK-6055,1 56467U 23064V   23296.32544927  .00000701  00000-0  66533-4 0  9996,2 56467  70.0015 154.0362 0002114 288.8469  71.2461 14.98324904 26022,6950.209,96.107,573.543,570.604,0.0
56467.0,STARLINK-6055,PAYLOAD,2023-10-23 20:37:36,14.98426497,0.000238,69.9996,152.6887,262.9179,97.171,0.00084863,0.00010072,0.0,0 STARLINK-6055,1 56467U 23064V   23296.85944747  .00010072  00000-0  84863-3 0  9995,2 56467  69.9996 152.6887 0002380 262.9179  97.1710 14.98426497 26102,6949.894,96.101,573.414,570.105,0.0
56467.0,STARLINK-6055,PAYLOAD,2023-10-23 22:13:50,14.98339843,0.0002087,70.0002,152.5207,261.1573,98.935,3.0999e-05,2.77e-06,0.0,0 STARLINK-6055,1 56467U 23064V   23296.92627949  .00000277  00000-0  30999-4 0  9993,2 56467  70.0002 152.5207 0002087 261.1573  98.9350 14.98339843 25758,6950.162,96.106,573.478,570.577,0.0
56467.0,STARLINK-6055,PAYLOAD,2023-10-23 23:50:00,14.98321406,0.0002638,69.9992,152.3523,275.1486,84.9372,-0.000317,-3.872e-05,0.0,0 STARLINK-6055,1 56467U 23064V   23296.99305813 -.00003872  00000-0 -31700-3 0  9999,2 56467  69.9992 152.3523 0002638 275.1486  84.9372 14.98321406 26129,6950.219,96.108,573.918,570.251,0.0
56467.0,STARLINK-6055,PAYLOAD,2023-10-24 07:50:38,14.98356654,0.0002768,69.999,151.5107,275.8748,84.2095,-0.00019095,-2.372e-05,0.0,0 STARLINK-6055,1 56467U 23064V   23297.32683036 -.00002372  00000-0 -19095-3 0  9990,2 56467  69.9990 151.5107 0002768 275.8748  84.2095 14.98356654 26171,6950.11,96.105,573.899,570.052,0.0
56467.0,STARLINK-6055,PAYLOAD,2023-10-24 14:15:11,14.98321431,0.0002746,69.9979,150.8367,271.465,88.6195,0.0004737,5.562e-05,0.0,0 STARLINK-6055,1 56467U 23064V   23297.59387759  .00005562  00000-0  47370-3 0  9991,2 56467  69.9979 150.8367 0002746 271.4650  88.6195 14.98321431 25856,6950.219,96.108,573.993,570.176,0.0
56467.0,STARLINK-6055,PAYLOAD,2023-10-25 14:17:11,14.98345705,0.0001551,69.9985,148.313,280.9021,79.1963,2.0933e-06,-6.8e-07,0.0,0 STARLINK-6055,1 56467U 23064V   23298.59527099 -.00000068  00000-0  20933-5 0  9990,2 56467  69.9985 148.3130 0001551 280.9021  79.1963 14.98345705 26368,6950.144,96.106,573.087,570.931,0.0
56467.0,STARLINK-6055,PAYLOAD,2023-10-25 22:17:51,14.98333857,0.000275,69.9982,147.4706,265.5596,94.5249,3.4346e-05,3.17e-06,0.0,0 STARLINK-6055,1 56467U 23064V   23298.92907243  .00000317  00000-0  34346-4 0  9998,2 56467  69.9982 147.4706 0002750 265.5596  94.5249 14.98333857 26051,6950.181,96.107,573.957,570.135,0.0
